# From MPC108599
353P/McNaught,e,28.4180,121.5625,230.3874,4.171807,0.1156692,0.46942164,57.1446,04/29.0/2019,2000,g 14.5,4.0
# From MPC105545
354P/LINEAR,e,5.2555,320.1349,133.1604,2.289541,0.2844994,0.12552234,256.2168,04/29.0/2019,2000,g 15.5,4.0
# From MPC109594
355P/LINEAR-NEAT,e,11.0325,51.4575,336.2862,3.474526,0.1521811,0.50636595,85.7399,04/29.0/2019,2000,g 15.5,2.0
# From MPC109148
356P/WISE,e,9.6303,160.7941,226.1153,4.163296,0.1160241,0.35416743,57.7931,04/29.0/2019,2000,g 14.0,4.0
# From MPC112394
357P/Hill,e,6.3083,44.6050,1.4930,4.465141,0.1044603,0.43425605,35.0104,04/29.0/2019,2000,g 15.5,4.0
# From MPC106350
358P/PANSTARRS,e,11.0572,85.7204,299.8361,3.150218,0.1762760,0.23767378,67.4360,04/29.0/2019,2000,g 18.0,4.0
# From MPC110086
359P/LONEOS,e,10.2613,149.7765,200.1068,4.639237,0.0986357,0.32342123,60.8120,04/29.0/2019,2000,g 13.5,4.0
# From MPC108599
360P/WISE,e,24.0809,2.2151,354.1206,3.704424,0.1382366,0.49803730,85.5100,04/29.0/2019,2000,g 19.5,6.0
# From MPC112394
361P/Spacewatch,e,13.8821,203.2710,219.1843,4.944782,0.0896362,0.43778742,26.9478,04/29.0/2019,2000,g 12.0,4.0
# From MPEC 2017-V13
362P/,e,15.5666,192.6098,53.5747,3.965306,0.1248214,0.28046306,122.0665,04/29.0/2019,2000,g 12.9,2.0
# From MPC110086
363P/Lemmon,e,3.9726,169.7880,315.5196,3.410875,0.1564607,0.55772977,62.8590,04/29.0/2019,2000,g 17.5,4.0
# From MPC112394
364P/PANSTARRS,e,12.1544,46.2210,211.9437,2.877757,0.2018938,0.72269537,62.3106,04/29.0/2019,2000,g 17.0,2.0
# From MPC111775
365P/PANSTARRS,e,9.8404,87.4377,66.3304,3.184411,0.1734444,0.57382237,76.6932,04/29.0/2019,2000,g 17.0,4.0
# From MPC110086
366P/Spacewatch,e,8.8597,70.7557,153.2307,3.497280,0.1506983,0.34887018,42.4184,04/29.0/2019,2000,g 15.0,4.0
# From MPC112395
367P/Catalina,e,8.4638,58.7170,172.9690,3.506174,0.1501253,0.28095377,46.7242,04/29.0/2019,2000,g 17.5,2.0
# From MPC112395
368P/NEAT,e,15.4850,257.9771,118.7997,5.526405,0.0758647,0.62585609,17.2027,04/29.0/2019,2000,g 14.0,4.0
# From MPC112395
369P/Hill,e,10.3080,47.3191,13.2730,4.389633,0.1071672,0.55416943,20.9909,04/29.0/2019,2000,g 15.0,4.0
# From MPC112395
370P/NEAT,e,19.3969,55.1616,356.7541,6.442893,0.0602674,0.61430765,19.5013,04/29.0/2019,2000,g 13.0,4.0
# From MPC112395
371P/LINEAR-Skiff,e,17.3797,67.3347,308.4746,4.181664,0.1152605,0.47605269,23.7918,04/29.0/2019,2000,g 16.0,4.0
# From MPC111775
372P/McNaught,e,9.5101,325.8382,26.9571,4.498878,0.1032875,0.15197963,19.7794,04/29.0/2019,2000,g 13.5,4.0
# From MPC112395
373P/Rinner,e,13.7576,231.9579,221.2105,3.807707,0.1326504,0.39243033,2.6343,04/29.0/2019,2000,g 14.5,4.0
# From MPC112395
374P/Larson,e,10.7576,7.9315,51.5853,4.977629,0.0887504,0.46227694,9.6001,04/29.0/2019,2000,g 14.0,4.0
# From MPC112395
375P/Hill,e,17.3660,359.9632,119.4280,5.561110,0.0751557,0.65920452,9.6623,04/29.0/2019,2000,g 16.0,4.0
